OBJECT_NAME,OBJECT_ID,EPOCH,MEAN_MOTION,ECCENTRICITY,INCLINATION,RA_OF_ASC_NODE,ARG_OF_PERICENTER,MEAN_ANOMALY,EPHEMERIS_TYPE,CLASSIFICATION_TYPE,NORAD_CAT_ID,ELEMENT_SET_NO,REV_AT_EPOCH,BSTAR,MEAN_MOTION_DOT,MEAN_MOTION_DDOT
STARLINK-34376,2025-123K,2026-06-11T19:27:50.998752,14.98309049,.00031899,70.0015,317.2807,265.2132,94.8663,0,U,64300,999,5571,-.93478652E-4,-.1208E-4,0
STARLINK-34372,2025-123L,2026-06-11T20:39:54.837504,14.98335044,.00026059,70.0005,317.0521,268.7143,91.3718,0,U,64301,999,5572,.17724783E-3,.2023E-4,0
STARLINK-34379,2025-123M,2026-06-11T16:31:48.097632,15.41060579,.00040996,70.0036,271.5571,273.8652,86.2060,0,U,64302,999,5684,.10654948E-2,.44279E-3,0
STARLINK-34356,2025-123N,2026-06-11T18:15:41.640768,14.98336222,.00029191,70.0011,317.1024,266.0365,94.0460,0,U,64303,999,5571,.28369962E-3,.3294E-4,0
STARLINK-34360,2025-123P,2026-06-11T19:22:02.760960,14.98333234,.00030719,70.0012,317.2601,267.7543,92.3265,0,U,64304,999,5571,.12102309E-3,.1351E-4,0
STARLINK-34383,2025-123Q,2026-06-11T18:09:57.456000,14.98333594,.00031041,70.0016,317.4851,267.9885,92.0918,0,U,64305,999,5570,.11532045E-3,.1283E-4,0
STARLINK-34355,2025-123R,2026-06-11T19:40:04.831104,14.98332913,.00031544,70.0016,317.3041,267.9260,92.1537,0,U,64306,999,5571,.12009769E-3,.134E-4,0
STARLINK-34380,2025-123S,2026-06-11T19:34:04.371168,14.98347026,.00028846,70.0013,317.2904,264.9798,95.1032,0,U,64307,999,5571,.22218827E-3,.256E-4,0
STARLINK-34374,2025-123T,2026-06-11T19:16:02.136000,14.98336905,.00028631,70.0008,317.2447,270.4778,89.6053,0,U,64308,999,5571,.18189928E-3,.2078E-4,0
STARLINK-34370,2025-123U,2026-06-11T20:40:08.959584,14.98334016,.00030112,70.0008,317.0460,268.3142,91.7673,0,U,64309,999,5572,.11150232E-3,.1238E-4,0
STARLINK-34357,2025-123V,2026-06-11T19:33:49.938048,14.98333416,.00031184,70.0014,317.2947,267.5804,92.4998,0,U,64310,999,5571,.13086515E-3,.1469E-4,0
STARLINK-34368,2025-123W,2026-06-11T19:21:49.852800,14.98327569,.00020209,70.0014,317.2545,269.0001,91.0926,0,U,64311,999,5571,.28563924E-3,.3317E-4,0
STARLINK-34384,2025-123X,2026-06-11T20:45:55.335456,14.98335564,.00026705,70.0008,317.0658,271.0244,89.0610,0,U,64312,999,5572,.13640501E-3,.1535E-4,0
STARLINK-34358,2025-123Y,2026-06-11T20:33:55.888704,14.98334086,.0002417,70.0007,317.0368,261.8998,98.1887,0,U,64313,999,5572,.36084031E-3,.4215E-4,0
STARLINK-34354,2025-123Z,2026-06-11T20:21:54.176544,14.98343152,.00032958,70.0004,317.0070,266.0468,94.0315,0,U,64314,999,5572,.40781001E-3,.4778E-4,0
STARLINK-34387,2025-123AA,2026-06-11T20:09:49.617504,14.98368701,.00032627,70.0008,316.9772,267.7522,92.3264,0,U,64315,999,5572,.76164866E-3,.9016E-4,0
STARLINK-33590,2025-123AB,2026-06-11T20:22:06.384000,14.98354924,.00024962,70.0015,316.9993,268.4691,91.6182,0,U,64316,999,5572,.71279591E-3,.8428E-4,0
STARLINK-11736 [DTC],2025-124A,2026-06-11T08:43:59.397888,15.70872013,.0001358,43.0002,184.8715,267.3221,92.7491,0,U,64317,999,5756,.99082E-3,.128848E-2,0
STARLINK-11673 [DTC],2025-124B,2026-06-11T21:57:26.711136,15.71011510,.00012688,42.9977,181.2493,249.9581,110.1150,0,U,64318,999,5765,.12761615E-2,.167854E-2,0
STARLINK-11671 [DTC],2025-124C,2026-06-11T07:58:07.061952,15.70985348,.0000923,42.9989,184.6184,121.5758,238.5199,0,U,64319,999,5756,.11977E-2,.157124E-2,0
STARLINK-11594 [DTC],2025-124D,2026-06-11T08:51:38.338272,15.70913323,.0000765,42.9991,184.9134,249.4634,110.6151,0,U,64320,999,5756,.12413E-2,.162471E-2,0
STARLINK-11596 [DTC],2025-124E,2026-06-11T02:30:06.295392,15.70883886,.00013022,42.9997,186.3613,282.3467,77.7255,0,U,64321,999,5752,.15375551E-2,.202083E-2,0
STARLINK-11747 [DTC],2025-124F,2026-06-11T06:49:29.701056,15.70874484,.0002189,43.0009,185.1242,277.9074,82.1545,0,U,64322,999,5755,.13751E-2,.180143E-2,0
STARLINK-11728 [DTC],2025-124G,2026-06-11T22:50:46.883328,15.71097842,.00028137,42.9977,180.6536,298.5600,61.4984,0,U,64323,999,5766,.12972543E-2,.171346E-2,0
STARLINK-11696 [DTC],2025-124H,2026-06-11T12:25:09.079680,15.70987249,.0002521,43.0010,183.4227,297.5977,62.4634,0,U,64324,999,5759,.1121E-2,.146876E-2,0
STARLINK-11698 [DTC],2025-124J,2026-06-11T22:00:01.999584,15.70860651,.00015559,43.0002,181.1009,261.6685,163.5359,0,U,64325,999,603,-.57763942E-3,-.73977E-3,0
STARLINK-11678 [DTC],2025-124K,2026-06-11T22:00:01.999584,15.78579717,.00011672,42.9970,181.0886,91.6354,337.3733,0,U,64326,999,603,.28207873E-2,.540075E-2,0
STARLINK-11674 [DTC],2025-124L,2026-06-10T08:49:25.405824,15.71005553,.00014071,42.9996,190.2745,183.3537,176.7321,0,U,64327,999,5741,.11090109E-2,.145376E-2,0
STARLINK-11707 [DTC],2025-124M,2026-06-11T12:40:25.431168,15.70970225,.0005433,43.0002,183.5050,276.6699,83.3550,0,U,64328,999,5759,.1213E-2,.159176E-2,0
STARLINK-11734 [DTC],2025-124N,2026-06-11T22:43:08.049216,15.71051436,.00023296,42.9987,180.6079,295.4976,64.5650,0,U,64329,999,5766,.11036297E-2,.144949E-2,0
