STARLINK-34376          
1 64300U 25123K   26162.81100693 -.00001208  00000+0 -93479-4 0  9999
2 64300  70.0015 317.2807 0003189 265.2132  94.8663 14.98309049 55719
STARLINK-34372          
1 64301U 25123L   26162.86105136  .00002023  00000+0  17725-3 0  9995
2 64301  70.0005 317.0521 0002605 268.7143  91.3718 14.98335044 55720
STARLINK-34379          
1 64302U 25123M   26162.68875113  .00044279  00000+0  10655-2 0  9998
2 64302  70.0036 271.5571 0004099 273.8652  86.2060 15.41060579 56849
STARLINK-34356          
1 64303U 25123N   26162.76089862  .00003294  00000+0  28370-3 0  9992
2 64303  70.0011 317.1024 0002919 266.0365  94.0460 14.98336222 55715
STARLINK-34360          
1 64304U 25123P   26162.80697640  .00001351  00000+0  12102-3 0  9995
2 64304  70.0012 317.2601 0003071 267.7543  92.3265 14.98333234 55719
STARLINK-34383          
1 64305U 25123Q   26162.75691500  .00001283  00000+0  11532-3 0  9999
2 64305  70.0016 317.4851 0003104 267.9885  92.0918 14.98333594 55701
STARLINK-34355          
1 64306U 25123R   26162.81950036  .00001340  00000+0  12010-3 0  9995
2 64306  70.0016 317.3041 0003154 267.9260  92.1537 14.98332913 55717
STARLINK-34380          
1 64307U 25123S   26162.81532837  .00002560  00000+0  22219-3 0  9998
2 64307  70.0013 317.2904 0002884 264.9798  95.1032 14.98347026 55718
STARLINK-34374          
1 64308U 25123T   26162.80280250  .00002078  00000+0  18190-3 0  9994
2 64308  70.0008 317.2447 0002863 270.4778  89.6053 14.98336905 55717
STARLINK-34370          
1 64309U 25123U   26162.86121481  .00001238  00000+0  11150-3 0  9997
2 64309  70.0008 317.0460 0003011 268.3142  91.7673 14.98334016 55722
STARLINK-34357          
1 64310U 25123V   26162.81516132  .00001469  00000+0  13087-3 0  9992
2 64310  70.0014 317.2947 0003118 267.5804  92.4998 14.98333416 55717
STARLINK-34368          
1 64311U 25123W   26162.80682700  .00003317  00000+0  28564-3 0  9997
2 64311  70.0014 317.2545 0002020 269.0001  91.0926 14.98327569 55717
STARLINK-34384          
1 64312U 25123X   26162.86522379  .00001535  00000+0  13641-3 0  9999
2 64312  70.0008 317.0658 0002670 271.0244  89.0610 14.98335564 55729
STARLINK-34358          
1 64313U 25123Y   26162.85689686  .00004215  00000+0  36084-3 0  9998
2 64313  70.0007 317.0368 0002417 261.8998  98.1887 14.98334086 55724
STARLINK-34354          
1 64314U 25123Z   26162.84854371  .00004778  00000+0  40781-3 0  9996
2 64314  70.0004 317.0070 0003295 266.0468  94.0315 14.98343152 55721
STARLINK-34387          
1 64315U 25123AA  26162.84015761  .00009016  00000+0  76165-3 0  9994
2 64315  70.0008 316.9772 0003262 267.7522  92.3264 14.98368701 55727
STARLINK-33590          
1 64316U 25123AB  26162.84868500  .00008428  00000+0  71280-3 0  9991
2 64316  70.0015 316.9993 0002496 268.4691  91.6182 14.98354924 55727
STARLINK-11736 [DTC]    
1 64317U 25124A   26162.36388192  .00128848  00000+0  99082-3 0  9993
2 64317  43.0002 184.8715 0001358 267.3221  92.7491 15.70872013 57565
STARLINK-11673 [DTC]    
1 64318U 25124B   26162.91489249  .00167854  00000+0  12762-2 0  9999
2 64318  42.9977 181.2493 0001268 249.9581 110.1150 15.71011510 57659
STARLINK-11671 [DTC]    
1 64319U 25124C   26162.33202618  .00157124  00000+0  11977-2 0  9995
2 64319  42.9989 184.6184 0000923 121.5758 238.5199 15.70985348 57561
STARLINK-11594 [DTC]    
1 64320U 25124D   26162.36919373  .00162471  00000+0  12413-2 0  9990
2 64320  42.9991 184.9134 0000765 249.4634 110.6151 15.70913323 57563
STARLINK-11596 [DTC]    
1 64321U 25124E   26162.10423953  .00202083  00000+0  15376-2 0  9992
2 64321  42.9997 186.3613 0001302 282.3467  77.7255 15.70883886 57520
STARLINK-11747 [DTC]    
1 64322U 25124F   26162.28437154  .00180143  00000+0  13751-2 0  9997
2 64322  43.0009 185.1242 0002189 277.9074  82.1545 15.70874484 57559
STARLINK-11728 [DTC]    
1 64323U 25124G   26162.95193152  .00171346  00000+0  12973-2 0  9999
2 64323  42.9977 180.6536 0002813 298.5600  61.4984 15.71097842 57661
STARLINK-11696 [DTC]    
1 64324U 25124H   26162.51746620  .00146876  00000+0  11210-2 0  9999
2 64324  43.0010 183.4227 0002521 297.5977  62.4634 15.70987249 57595
STARLINK-11698 [DTC]    
1 64325U 25124J   26162.91668981 -.00073977  00000+0 -57764-3 0  9995
2 64325  43.0002 181.1009 0001555 261.6685 163.5359 15.70860651  6031
STARLINK-11678 [DTC]    
1 64326U 25124K   26162.91668981  .00540075  00000+0  28208-2 0  9992
2 64326  42.9970 181.0886 0001167  91.6354 337.3733 15.78579717  6034
STARLINK-11674 [DTC]    
1 64327U 25124L   26161.36765516  .00145376  00000+0  11090-2 0  9999
2 64327  42.9996 190.2745 0001407 183.3537 176.7321 15.71005553 57419
STARLINK-11707 [DTC]    
1 64328U 25124M   26162.52807212  .00159176  00000+0  12130-2 0  9998
2 64328  43.0002 183.5050 0005433 276.6699  83.3550 15.70970225 57594
STARLINK-11734 [DTC]    
1 64329U 25124N   26162.94662094  .00144949  00000+0  11036-2 0  9998
2 64329  42.9987 180.6079 0002329 295.4976  64.5650 15.71051436 57667
